GALAXY 16               
1 29236C 06023A   20229.92690972 -.00000037  00000-0  00000-0 0  2299
2 29236   0.0204 214.0261 0002483 299.7943  46.6330  1.00268730    16
GALAXY 16               
1 29236C 06023A   20233.00000000 -.00000044  00000-0  00000-0 0  2333
2 29236   0.0022  78.5453 0001881  80.3717  70.8665  1.00265356    15
GALAXY 16           [PM]
1 29236C 06023A   20236.62818287 -.00003732  00000-0  00000-0 0  2368
2 29236   0.0362 279.7918 0002861 226.5059 313.2168  1.00270964    18
GALAXY 17               
1 31307C 07016B   20229.92690972 -.00003684  00000-0  00000-0 0  2295
2 31307   0.0000  38.7660 0003106 117.5626  52.1220  1.00270323    15
GALAXY 17               
1 31307C 07016B   20233.00000000 -.00003779  00000-0  00000-0 0  2336
2 31307   0.0425 296.9186 0003136 214.1421  86.7308  1.00271545    14
GALAXY 17           [PM]
1 31307C 07016B   20239.94728009 -.00000084  00000-0  00000-0 0  2393
2 31307   0.0141  84.5162 0003643  71.3469  69.7857  1.00272188    16
INTELSAT 11             
1 32253C 07044B   20229.92690972 -.00000174  00000-0  00000-0 0  2298
2 32253   0.0025 119.1008 0001847  69.3985  67.9699  1.00270682    17
INTELSAT 11             
1 32253C 07044B   20233.00000000 -.00000208  00000-0  00000-0 0  2332
2 32253   0.0069 127.7964 0001627  50.7356 107.2636  1.00272909    16
INTELSAT 11         [PM]
1 32253C 07044B   20236.48423611 -.00004020  00000-0  00000-0 0  2363
2 32253   0.0139 220.1359 0001906 312.9925 290.4341  1.00271272    15
HORIZONS 2              
1 32388C 07063B   20229.92690972 -.00000092  00000-0  00000-0 0  2297
2 32388   0.0000  36.7763 0002475 106.6944 240.8374  1.00270032    10
HORIZONS 2              
1 32388C 07063B   20233.00000000 -.00003235  00000-0  00000-0 0  2335
2 32388   0.0007 169.7476 0002601 334.8999 268.9853  1.00271253    10
HORIZONS 2          [PM]
1 32388C 07063B   20235.68814815 -.00000085  00000-0  00000-0 0  2350
2 32388   0.0387 307.3843 0003010 195.0190 161.6068  1.00273437    17
GALAXY 18               
1 32951C 08024A   20229.92690972  .00000115  00000-0  00000-0 0  2296
2 32951   0.0175 207.9577 0002865 312.0897  16.4046  1.00271451    16
GALAXY 18               
1 32951C 08024A   20233.00000000  .00000115  00000-0  00000-0 0  2332
2 32951   0.0096 186.8072 0002764 323.9945  54.9891  1.00265965    14
GALAXY 18           [PM]
1 32951C 08024A   20234.42708333 -.00003315  00000-0  00000-0 0  2340
2 32951   0.0030 173.3015 0002880 333.1604 214.4794  1.00270628    11
INTELSAT 25             
1 33153C 08034A   20229.92690972 -.00003769  00000-0  00000-0 0  2291
2 33153   0.0435 251.0758 0001312 324.8515  52.0225  1.00273106    19
INTELSAT 25             
1 33153C 08034A   20233.00000000 -.00004023  00000-0  00000-0 0  2331
2 33153   0.0350 228.4021 0001111 334.5179  94.3773  1.00274293    12
INTELSAT 25         [PM]
1 33153C 08034A   20234.68458333 -.00000134  00000-0  00000-0 0  2342
2 33153   0.0251 213.5252 0001053 335.4125 356.4733  1.00271281    11
GALAXY 19               
1 33376C 08045A   20229.92690972 -.00000049  00000-0  00000-0 0  2298
2 33376   0.0027 120.1137 0003069  39.4160  42.9227  1.00271512    15
GALAXY 19               
1 33376C 08045A   20233.00000000 -.00000049  00000-0  00000-0 0  2334
2 33376   0.0071 128.8021 0003134  28.3192  74.6693  1.00270418    19
GALAXY 19           [PM]
1 33376C 08045A   20236.62222222 -.00000054  00000-0  00000-0 0  2366
2 33376   0.0393 291.4779 0003641 222.9199 304.9658  1.00269626    14
INTELSAT 14             
1 36097C 09064A   20229.92690972 -.00000183  00000-0  00000-0 0  2292
2 36097   0.0159 115.4783 0001999  37.1996 101.7829  1.00272371    16
INTELSAT 14             
1 36097C 09064A   20233.00000000 -.00003811  00000-0  00000-0 0  2339
2 36097   0.0379 255.6927 0002044 255.0714 133.0347  1.00269507    18
INTELSAT 14         [PM]
1 36097C 09064A   20234.95855324 -.00003829  00000-0  00000-0 0  2341
2 36097   0.0194 219.5187 0002397 283.8639 127.4044  1.00273150    16
INTELSAT 15             
1 36106C 09067A   20229.92690972 -.00003519  00000-0  00000-0 0  2292
2 36106   0.0001 136.0420 0002087  24.9266 223.6238  1.00270496    17
INTELSAT 15             
1 36106C 09067A   20233.00000000 -.00000096  00000-0  00000-0 0  2335
2 36106   0.0007 118.7903 0001475  29.2375 265.9062  1.00272552    14
INTELSAT 15         [PM]
1 36106C 09067A   20237.13456019  .00000127  00000-0  00000-0 0  2376
2 36106   0.0212 251.4564 0001783 254.2578 320.7480  1.00272709    15
INTELSAT 16             
1 36397C 10006A   20229.92690972 -.00000153  00000-0  00000-0 0  2290
2 36397   0.0000 110.3983 0002353  60.2763  52.5775  1.00271125    13
INTELSAT 16             
1 36397C 10006A   20233.00000000 -.00000155  00000-0  00000-0 0  2338
2 36397   0.0042 122.6393 0001916  32.9791  96.9673  1.00278258    14
INTELSAT 16         [PM]
1 36397C 10006A   20237.58394676 -.00004161  00000-0  00000-0 0  2375
2 36397   0.0226 252.1487 0002199 250.6302 324.5542  1.00269625    15
INTELSAT 17             
1 37238C 10065B   20229.92690972  .00000089  00000-0  00000-0 0  2297
2 37238   0.0181 153.9656 0002744  12.1308 199.3531  1.00271725    19
INTELSAT 17             
1 37238C 10065B   20233.00000000  .00000089  00000-0  00000-0 0  2333
2 37238   0.0196 151.3954 0002797  12.6843 230.7168  1.00271447    12
INTELSAT 17         [PM]
1 37238C 10065B   20234.60613426  .00000089  00000-0  00000-0 0  2343
2 37238   0.0369 238.1909 0002963 282.2376  94.1555  1.00271144    15
INTELSAT NEW DAWN       
1 37392C 11016A   20229.92690972  .00000251  00000-0  00000-0 0  2296
2 37392   0.0247 184.6221 0000390 147.6824 359.9232  1.00272368    10
INTELSAT NEW DAWN       
1 37392C 11016A   20233.00000000  .00000246  00000-0  00000-0 0  2336
2 37392   0.0209 171.2579 0000330 180.2625  10.0678  1.00273137    16
INTELSAT NEW DAWN   [PM]
1 37392C 11016A   20236.28267361  .00000237  00000-0  00000-0 0  2367
2 37392   0.0410 253.1996 0000588 220.4684 352.9055  1.00271308    15
INTELSAT 18             
1 37834C 11056A   20229.92690972  .00000143  00000-0  00000-0 0  2291
2 37834   0.0149 106.8861 0001713  52.3034 320.2672  1.00271601    11
INTELSAT 18             
1 37834C 11056A   20233.00000000 -.00004434  00000-0  00000-0 0  2335
2 37834   0.0456 292.2377 0002190 218.8349 357.7035  1.00272805    17
INTELSAT 18         [PM]
1 37834C 11056A   20235.11557870  .00000143  00000-0  00000-0 0  2355
2 37834   0.0000 139.9080 0002520   9.6627  42.9131  1.00271988    13
INTELSAT 22             
1 38098C 12011A   20229.92690972  .00000042  00000-0  00000-0 0  2294
2 38098   0.0181 211.6228 0002394 322.7361 197.1971  1.00270129    12
INTELSAT 22         [PM]
1 38098C 12011A   20230.81379630 -.00003868  00000-0  00000-0 0  2301
2 38098   0.0133 193.8748 0002378 338.9403 158.8936  1.00270539    15
INTELSAT 22             
1 38098C 12011A   20233.00000000  .00000031  00000-0  00000-0 0  2338
2 38098   0.0118 193.9067 0002419 335.5298 231.4545  1.00270142    18
INTELSAT 19             
1 38356C 12030A   20229.92690972  .00000180  00000-0  00000-0 0  2295
2 38356   0.0031 170.6159 0002663 343.3638 311.4692  1.00270923    18
INTELSAT 19             
1 38356C 12030A   20233.00000000  .00000033  00000-0  00000-0 0  2338
2 38356   0.0065 125.0307 0002705  25.7196 344.0359  1.00270351    18
INTELSAT 19         [PM]
1 38356C 12030A   20236.88960648 -.00003817  00000-0  00000-0 0  2367
2 38356   0.0281 274.4247 0003318 221.4762 322.9820  1.00270390    16
INTELSAT 20             
1 38740C 12043A   20230.00000000  .00000066  00000-0  00000-0 0  2309
2 38740   0.0155 134.3191 0001102  85.2939 174.7247  1.00269909    16
INTELSAT 20             
1 38740C 12043A   20233.00000000  .00000066  00000-0  00000-0 0  2335
2 38740   0.0143 148.2966 0000932  58.3090 190.6877  1.00269556    10
INTELSAT 20         [PM]
1 38740C 12043A   20233.31666667  .00000066  00000-0  00000-0 0  2336
2 38740   0.0118 140.6065 0000999  50.7510 320.2419  1.00271584    11
INTELSAT 21             
1 38749C 12045A   20229.92690972 -.00000195  00000-0  00000-0 0  2294
2 38749   0.0161 111.0536 0001772  44.5797  85.8244  1.00271238    17
INTELSAT 21             
1 38749C 12045A   20233.00000000 -.00003806  00000-0  00000-0 0  2332
2 38749   0.0154 200.7182 0001857 304.6187 125.4472  1.00272681    16
INTELSAT 21         [PM]
1 38749C 12045A   20234.53636574 -.00003926  00000-0  00000-0 0  2346
2 38749   0.0069 185.5464 0002010 319.2391 320.6088  1.00271881    18
INTELSAT 23             
1 38867C 12057A   20229.92690972 -.00003514  00000-0  00000-0 0  2296
2 38867   0.0025 161.0925 0001384  13.4340  71.9416  1.00264705    10
INTELSAT 23             
1 38867C 12057A   20233.00000000 -.00003808  00000-0  00000-0 0  2338
2 38867   0.0221 210.1608 0001576 297.6311 128.0029  1.00269260    14
INTELSAT 23         [PM]
1 38867C 12057A   20235.83216435 -.00000195  00000-0  00000-0 0  2350
2 38867   0.0059 176.6098 0001820 315.9489  85.5768  1.00273926    15
INTELSAT 30             
1 40271C 14062A   20230.00000000 -.00000059  00000-0  00000-0 0  2307
2 40271   0.0016 114.6982 0001497 333.9476 142.1575  1.00270513    15
INTELSAT 30             
1 40271C 14062A   20233.00000000 -.00000060  00000-0  00000-0 0  2335
2 40271   0.0041 128.5901 0001705 319.5575 145.5970  1.00269278    12
INTELSAT 30         [PM]
1 40271C 14062A   20233.18559028 -.00000079  00000-0  00000-0 0  2333
2 40271   0.0000 123.1724 0001842 311.6252 225.9422  1.00271238    12
INTELSAT 34             
1 40874C 15039A   20230.00000000 -.00004109  00000-0  00000-0 0  2301
2 40874   0.0000 142.4258 0000384 217.9685 269.9626  1.00271088    12
INTELSAT 34             
1 40874C 15039A   20233.00000000 -.00004044  00000-0  00000-0 0  2335
2 40874   0.0000 153.0081 0000733 233.7493 246.5560  1.00269683    11
